{"type": "FeatureCollection", "features": [ {"type": "Feature", "properties": {"norad_id": 66569, "name": "STARLINK-35835", "group": "last-30-days", "lat": 42.05166493775351, "lon": -123.37890741048645, "alt_km": 409.4562030039742, "timestamp": "2025-12-10T20:49:51.345082+00:00", "meta": {"OBJECT_NAME": "STARLINK-35835", "OBJECT_ID": "2025-268N", "EPOCH": "2025-12-10T14:00:03.000384", "MEAN_MOTION": 15.50625311, "ECCENTRICITY": 0.00015502, "INCLINATION": 43, "RA_OF_ASC_NODE": 133.7546, "ARG_OF_PERICENTER": 264.7658, "MEAN_ANOMALY": 45.4575, "EPHEMERIS_TYPE": 0, "CLASSIFICATION_TYPE": "U", "NORAD_CAT_ID": 66569, "ELEMENT_SET_NO": 999, "REV_AT_EPOCH": 432, "BSTAR": -0.0022331696, "MEAN_MOTION_DOT": -0.00129423, "MEAN_MOTION_DDOT": 0}, "tle": {"line1": "1 66569U 25268N   25344.58336806 -.00129423  00000+0 -22332-2 0  9998", "line2": "2 66569  43.0000 133.7546 0001550 264.7658  45.4575 15.50625311  4327"}}, "geometry": {"type": "Point", "coordinates": [-123.37890741048645, 42.05166493775351]}}, {"type": "Feature", "properties": {"norad_id": 66570, "name": "STARLINK-35834", "group": "last-30-days", "lat": 41.696816644316485, "lon": -120.85953641871856, "alt_km": 409.3845007648033, "timestamp": "2025-12-10T20:49:51.345094+00:00", "meta": {"OBJECT_NAME": "STARLINK-35834", "OBJECT_ID": "2025-268P", "EPOCH": "2025-12-10T14:00:03.000384", "MEAN_MOTION": 15.50624177, "ECCENTRICITY": 0.00014271, "INCLINATION": 43.0003, "RA_OF_ASC_NODE": 133.7483, "ARG_OF_PERICENTER": 260.2467, "MEAN_ANOMALY": 51.8877, "EPHEMERIS_TYPE": 0, "CLASSIFICATION_TYPE": "U", "NORAD_CAT_ID": 66570, "ELEMENT_SET_NO": 999, "REV_AT_EPOCH": 432, "BSTAR": -0.0020776678, "MEAN_MOTION_DOT": -0.00120564, "MEAN_MOTION_DDOT": 0}, "tle": {"line1": "1 66570U 25268P   25344.58336806 -.00120564  00000+0 -20777-2 0  9998", "line2": "2 66570  43.0003 133.7483 0001427 260.2467  51.8877 15.50624177  4329"}}, "geometry": {"type": "Point", "coordinates": [-120.85953641871856, 41.696816644316485]}}, {"type": "Feature", "properties": {"norad_id": 66571, "name": "STARLINK-35836", "group": "last-30-days", "lat": 41.28686446269156, "lon": -118.36725987951473, "alt_km": 409.52337249697666, "timestamp": "2025-12-10T20:49:51.345104+00:00", "meta": {"OBJECT_NAME": "STARLINK-35836", "OBJECT_ID": "2025-268Q", "EPOCH": "2025-12-10T14:00:03.000384", "MEAN_MOTION": 15.50591133, "ECCENTRICITY": 0.00015544, "INCLINATION": 43.0003, "RA_OF_ASC_NODE": 133.7439, "ARG_OF_PERICENTER": 264.9534, "MEAN_ANOMALY": 49.1061, "EPHEMERIS_TYPE": 0, "CLASSIFICATION_TYPE": "U", "NORAD_CAT_ID": 66571, "ELEMENT_SET_NO": 999, "REV_AT_EPOCH": 432, "BSTAR": -0.00088622932, "MEAN_MOTION_DOT": -0.00052011, "MEAN_MOTION_DDOT": 0}, "tle": {"line1": "1 66571U 25268Q   25344.58336806 -.00052011  00000+0 -88623-3 0  9995", "line2": "2 66571  43.0003 133.7439 0001554 264.9534  49.1061 15.50591133  4328"}}, "geometry": {"type": "Point", "coordinates": [-118.36725987951473, 41.28686446269156]}}, {"type": "Feature", "properties": {"norad_id": 66572, "name": "STARLINK-35870", "group": "last-30-days", "lat": 40.82096800123425, "lon": -115.89417116568171, "alt_km": 409.5595695660604, "timestamp": "2025-12-10T20:49:51.345116+00:00", "meta": {"OBJECT_NAME": "STARLINK-35870", "OBJECT_ID": "2025-268R", "EPOCH": "2025-12-10T14:00:03.000384", "MEAN_MOTION": 15.50610078, "ECCENTRICITY": 0.00014886, "INCLINATION": 43.0002, "RA_OF_ASC_NODE": 133.7405, "ARG_OF_PERICENTER": 264.8633, "MEAN_ANOMALY": 51.1118, "EPHEMERIS_TYPE": 0, "CLASSIFICATION_TYPE": "U", "NORAD_CAT_ID": 66572, "ELEMENT_SET_NO": 999, "REV_AT_EPOCH": 432, "BSTAR": -0.0016272379, "MEAN_MOTION_DOT": -0.00094762, "MEAN_MOTION_DDOT": 0}, "tle": {"line1": "1 66572U 25268R   25344.58336806 -.00094762  00000+0 -16272-2 0  9995", "line2": "2 66572  43.0002 133.7405 0001488 264.8633  51.1118 15.50610078  4322"}}, "geometry": {"type": "Point", "coordinates": [-115.89417116568171, 40.82096800123425]}}, {"type": "Feature", "properties": {"norad_id": 66573, "name": "STARLINK-35650", "group": "last-30-days", "lat": 40.29814514245724, "lon": -113.43905013754431, "alt_km": 410.15404546174796, "timestamp": "2025-12-10T20:49:51.345126+00:00", "meta": {"OBJECT_NAME": "STARLINK-35650", "OBJECT_ID": "2025-268S", "EPOCH": "2025-12-10T14:00:03.000384", "MEAN_MOTION": 15.50615293, "ECCENTRICITY": 0.00021151, "INCLINATION": 43.0002, "RA_OF_ASC_NODE": 133.734, "ARG_OF_PERICENTER": 275.7924, "MEAN_ANOMALY": 42.1268, "EPHEMERIS_TYPE": 0, "CLASSIFICATION_TYPE": "U", "NORAD_CAT_ID": 66573, "ELEMENT_SET_NO": 999, "REV_AT_EPOCH": 432, "BSTAR": -0.0023040888, "MEAN_MOTION_DOT": -0.00133417, "MEAN_MOTION_DDOT": 0}, "tle": {"line1": "1 66573U 25268S   25344.58336806 -.00133417  00000+0 -23041-2 0  9999", "line2": "2 66573  43.0002 133.7340 0002115 275.7924  42.1268 15.50615293  4323"}}, "geometry": {"type": "Point", "coordinates": [-113.43905013754431, 40.29814514245724]}}, {"type": "Feature", "properties": {"norad_id": 66574, "name": "STARLINK-35812", "group": "last-30-days", "lat": 39.739171092730935, "lon": -111.0832322293778, "alt_km": 409.9204921768069, "timestamp": "2025-12-10T20:49:51.345138+00:00", "meta": {"OBJECT_NAME": "STARLINK-35812", "OBJECT_ID": "2025-268T", "EPOCH": "2025-12-10T14:00:03.000384", "MEAN_MOTION": 15.50593883, "ECCENTRICITY": 0.00018323, "INCLINATION": 43.0001, "RA_OF_ASC_NODE": 133.7292, "ARG_OF_PERICENTER": 267.691, "MEAN_ANOMALY": 52.1198, "EPHEMERIS_TYPE": 0, "CLASSIFICATION_TYPE": "U", "NORAD_CAT_ID": 66574, "ELEMENT_SET_NO": 999, "REV_AT_EPOCH": 432, "BSTAR": -0.00095480864, "MEAN_MOTION_DOT": -0.00055988, "MEAN_MOTION_DDOT": 0}, "tle": {"line1": "1 66574U 25268T   25344.58336806 -.00055988  00000+0 -95481-3 0  9994", "line2": "2 66574  43.0001 133.7292 0001832 267.6910  52.1198 15.50593883  4322"}}, "geometry": {"type": "Point", "coordinates": [-111.0832322293778, 39.739171092730935]}}, {"type": "Feature", "properties": {"norad_id": 66575, "name": "STARLINK-35810", "group": "last-30-days", "lat": 39.12241565169141, "lon": -108.72702218940094, "alt_km": 409.94774617713756, "timestamp": "2025-12-10T20:49:51.345164+00:00", "meta": {"OBJECT_NAME": "STARLINK-35810", "OBJECT_ID": "2025-268U", "EPOCH": "2025-12-10T14:00:03.000384", "MEAN_MOTION": 15.50623954, "ECCENTRICITY": 0.00016879, "INCLINATION": 43.0002, "RA_OF_ASC_NODE": 133.7243, "ARG_OF_PERICENTER": 269.4871, "MEAN_ANOMALY": 52.234, "EPHEMERIS_TYPE": 0, "CLASSIFICATION_TYPE": "U", "NORAD_CAT_ID": 66575, "ELEMENT_SET_NO": 999, "REV_AT_EPOCH": 432, "BSTAR": -0.0020755639, "MEAN_MOTION_DOT": -0.00120446, "MEAN_MOTION_DDOT": 0}, "tle": {"line1": "1 66575U 25268U   25344.58336806 -.00120446  00000+0 -20756-2 0  9999", "line2": "2 66575  43.0002 133.7243 0001687 269.4871  52.2340 15.50623954  4327"}}, "geometry": {"type": "Point", "coordinates": [-108.72702218940094, 39.12241565169141]}}, {"type": "Feature", "properties": {"norad_id": 66576, "name": "STARLINK-35814", "group": "last-30-days", "lat": 38.459958572888, "lon": -106.41680028000278, "alt_km": 410.0541347424105, "timestamp": "2025-12-10T20:49:51.345175+00:00", "meta": {"OBJECT_NAME": "STARLINK-35814", "OBJECT_ID": "2025-268V", "EPOCH": "2025-12-10T14:00:03.000384", "MEAN_MOTION": 15.50641042, "ECCENTRICITY": 0.00018326, "INCLINATION": 43.0001, "RA_OF_ASC_NODE": 133.7202, "ARG_OF_PERICENTER": 261.1769, "MEAN_ANOMALY": 62.4598, "EPHEMERIS_TYPE": 0, "CLASSIFICATION_TYPE": "U", "NORAD_CAT_ID": 66576, "ELEMENT_SET_NO": 999, "REV_AT_EPOCH": 432, "BSTAR": -0.0026641277, "MEAN_MOTION_DOT": -0.00153947, "MEAN_MOTION_DDOT": 0}, "tle": {"line1": "1 66576U 25268V   25344.58336806 -.00153947  00000+0 -26641-2 0  9991", "line2": "2 66576  43.0001 133.7202 0001832 261.1769  62.4598 15.50641042  4325"}}, "geometry": {"type": "Point", "coordinates": [-106.41680028000278, 38.459958572888]}}, {"type": "Feature", "properties": {"norad_id": 66577, "name": "STARLINK-35815", "group": "last-30-days", "lat": 37.753773498261346, "lon": -104.15329957628775, "alt_km": 410.09171153163334, "timestamp": "2025-12-10T20:49:51.345185+00:00", "meta": {"OBJECT_NAME": "STARLINK-35815", "OBJECT_ID": "2025-268W", "EPOCH": "2025-12-10T14:00:03.000384", "MEAN_MOTION": 15.50635178, "ECCENTRICITY": 0.00016602, "INCLINATION": 43.0001, "RA_OF_ASC_NODE": 133.7155, "ARG_OF_PERICENTER": 265.5566, "MEAN_ANOMALY": 59.9986, "EPHEMERIS_TYPE": 0, "CLASSIFICATION_TYPE": "U", "NORAD_CAT_ID": 66577, "ELEMENT_SET_NO": 999, "REV_AT_EPOCH": 432, "BSTAR": -0.0025110399, "MEAN_MOTION_DOT": -0.00145247, "MEAN_MOTION_DDOT": 0}, "tle": {"line1": "1 66577U 25268W   25344.58336806 -.00145247  00000+0 -25110-2 0  9996", "line2": "2 66577  43.0001 133.7155 0001660 265.5566  59.9986 15.50635178  4320"}}, "geometry": {"type": "Point", "coordinates": [-104.15329957628775, 37.753773498261346]}}, {"type": "Feature", "properties": {"norad_id": 66578, "name": "STARLINK-35743", "group": "last-30-days", "lat": 37.00578134398318, "lon": -101.93702653516256, "alt_km": 410.1106494032656, "timestamp": "2025-12-10T20:49:51.345195+00:00", "meta": {"OBJECT_NAME": "STARLINK-35743", "OBJECT_ID": "2025-268X", "EPOCH": "2025-12-10T14:00:03.000384", "MEAN_MOTION": 15.50624545, "ECCENTRICITY": 0.00015919, "INCLINATION": 43.0002, "RA_OF_ASC_NODE": 133.7098, "ARG_OF_PERICENTER": 261.8921, "MEAN_ANOMALY": 65.5844, "EPHEMERIS_TYPE": 0, "CLASSIFICATION_TYPE": "U", "NORAD_CAT_ID": 66578, "ELEMENT_SET_NO": 999, "REV_AT_EPOCH": 432, "BSTAR": -0.0021714424, "MEAN_MOTION_DOT": -0.00125908, "MEAN_MOTION_DDOT": 0}, "tle": {"line1": "1 66578U 25268X   25344.58336806 -.00125908  00000+0 -21714-2 0  9995", "line2": "2 66578  43.0002 133.7098 0001591 261.8921  65.5844 15.50624545  4327"}}, "geometry": {"type": "Point", "coordinates": [-101.93702653516256, 37.00578134398318]}}]}